NIMIQ 2                 
1 27632U 02062A   26203.14628039 -.00000074  00000+0  00000+0 0  9996
2 27632   9.5243  56.5248 0005518  59.2620 127.5547  1.00272606 44539
ANIK F2                 
1 28378U 04027A   26203.40391918 -.00000049  00000+0  00000+0 0  9991
2 28378   3.3762  78.9776 0003785  35.7458 219.7100  1.00272550 41614
ANIK F1R                
1 28868U 05036A   26203.43169936 -.00000075  00000+0  00000+0 0  9991
2 28868   4.4004  76.1411 0003984  24.3152 247.8255  1.00272539 46807
ANIK F3                 
1 31102U 07009A   26203.48655935  .00000001  00000+0  00000+0 0  9990
2 31102   1.2864  83.4332 0002755  37.8105 235.4359  1.00273351 46919
NIMIQ 4                 
1 33373U 08044A   26203.45546743 -.00000217  00000+0  00000+0 0  9995
2 33373   0.0041 345.3401 0001889 144.5402 252.2749  1.00271319 65334
TELSTAR 11N             
1 34111U 09009A   26203.32170800 -.00000247  00000+0  00000+0 0  9994
2 34111   0.0146  44.4248 0002570  67.0443 266.8647  1.00272797 46595
TERRESTAR-1             
1 35496U 09035A   26203.48655935 -.00000057  00000+0  00000+0 0  9993
2 35496   5.1962  48.7608 0002511  67.6033 248.0318  1.00272401 62482
NIMIQ 5                 
1 35873U 09050A   26203.45737411 -.00000253  00000+0  00000+0 0  9994
2 35873   0.0616 258.4979 0002906 211.0934 282.5690  1.00271996 61691
SKYTERRA 1              
1 37218U 10061A   26203.43169936 -.00000119  00000+0  00000+0 0  9993
2 37218   5.1980  50.7920 0002921  25.4013 278.0672  1.00275684 57544
TELSTAR 14R             
1 37602U 11021A   26203.45252075  .00000014  00000+0  00000+0 0  9999
2 37602   0.1017  85.0422 0007989 294.3352 346.5883  0.98982123 56180
NIMIQ 6                 
1 38342U 12026A   26203.45373409 -.00000170  00000+0  00000+0 0  9996
2 38342   0.0553 262.9132 0002998 219.7219 249.8011  1.00271242 50761
ANIK G1                 
1 39127U 13014A   26203.45052741 -.00000071  00000+0  00000+0 0  9999
2 39127   0.0112  26.5349 0001998  99.7404 228.8087  1.00272537 48607
TELSTAR 12V             
1 41036U 15068A   26203.32621469 -.00000115  00000+0  00000+0 0  9996
2 41036   0.0195 297.5055 0002391 183.8770 281.1214  1.00272938 38971
VIASAT-2                
1 42740U 17029A   26203.31529463 -.00000262  00000+0  00000+0 0  9991
2 42740   0.0201 301.0516 0000527 212.8452 189.7556  1.00271019 33543
LEO 1 (LEO VANTAGE 1)   
1 43113U 18004C   26203.55731977  .00003880  00000+0  27064-3 0  9992
2 43113  99.2398 126.4692 0348767 331.0562  27.1682 14.68068137442672
TELSTAR 19V             
1 43562U 18059A   26203.45928079 -.00000276  00000+0  00000+0 0  9994
2 43562   0.0338 186.9869 0003158 300.9925 274.5662  1.00271786 29496
TELSTAR 18V             
1 43611U 18069A   26203.52197340 -.00000290  00000+0  00000+0 0  9993
2 43611   0.0225 292.5565 0001993 186.2622 147.3619  1.00270941 28992
AMOS-17                 
1 44479U 19050A   26203.26123336  .00000112  00000+0  00000+0 0  9994
2 44479   0.0263 324.2393 0001739 159.8887 286.9135  1.00271808 25539
